{"type": "FeatureCollection", "features": [{"type": "Feature", "geometry": {"type": "MultiLineString", "coordinates": [[[-6.1566, 53.4503], [-6.1565, 53.4506], [-6.1565, 53.4507], [-6.1565, 53.4508], [-6.1565, 53.451], [-6.1565, 53.4511], [-6.1564, 53.4515], [-6.1563, 53.452]], [[-6.1514, 53.4182], [-6.1512, 53.4177], [-6.1512, 53.4173], [-6.1511, 53.4172], [-6.1511, 53.4171], [-6.1511, 53.417], [-6.151, 53.4165]], [[-6.1491, 53.4019], [-6.149, 53.4019], [-6.1488, 53.4023], [-6.1487, 53.4029], [-6.1486, 53.4033], [-6.1486, 53.4034], [-6.1486, 53.4036], [-6.1487, 53.4036], [-6.1488, 53.4033], [-6.1488, 53.4029], [-6.1489, 53.4026], [-6.149, 53.4023], [-6.1491, 53.4019]], [[-6.1562, 53.3911], [-6.156, 53.3913], [-6.1556, 53.3915], [-6.1553, 53.3918], [-6.1549, 53.3921], [-6.1546, 53.3923], [-6.1544, 53.3924], [-6.1547, 53.3922], [-6.1551, 53.3919], [-6.1553, 53.3917], [-6.1554, 53.3916], [-6.1556, 53.3914], [-6.1562, 53.3911]], [[-6.1622, 53.3867], [-6.1619, 53.3869], [-6.1614, 53.3873], [-6.1611, 53.3875], [-6.1609, 53.3876], [-6.1605, 53.3879], [-6.1604, 53.388], [-6.1608, 53.3877], [-6.1611, 53.3875], [-6.1614, 53.3873], [-6.1617, 53.3871], [-6.162, 53.3869], [-6.1622, 53.3867]], [[-6.1781, 53.3812], [-6.1772, 53.3814], [-6.1766, 53.3815], [-6.176, 53.3816], [-6.1756, 53.3816], [-6.1753, 53.3817], [-6.1761, 53.3816], [-6.1762, 53.3816], [-6.1767, 53.3815], [-6.1775, 53.3814], [-6.1779, 53.3813], [-6.1781, 53.3812]], [[-6.1938, 53.3778], [-6.1935, 53.3779], [-6.1931, 53.378], [-6.1926, 53.3782], [-6.1922, 53.3784], [-6.1919, 53.3785], [-6.1918, 53.3785], [-6.1914, 53.3786], [-6.1913, 53.3787], [-6.1915, 53.3786], [-6.1917, 53.3786], [-6.1919, 53.3785], [-6.1925, 53.3783], [-6.193, 53.3781], [-6.1935, 53.3779], [-6.1938, 53.3778]], [[-6.2054, 53.3726], [-6.2053, 53.3726], [-6.2052, 53.3726], [-6.205, 53.3727], [-6.2048, 53.3728], [-6.2043, 53.3729], [-6.2042, 53.373], [-6.205, 53.3728], [-6.2054, 53.3726], [-6.2065, 53.3722], [-6.2058, 53.3724], [-6.2054, 53.3726]], [[-6.2287, 53.3622], [-6.2271, 53.363], [-6.227, 53.363], [-6.2269, 53.3631], [-6.2268, 53.3631], [-6.2267, 53.3632], [-6.2267, 53.3631], [-6.2267, 53.3632], [-6.227, 53.363], [-6.2287, 53.3622]], [[-6.253, 53.346], [-6.2533, 53.3462], [-6.2535, 53.3464], [-6.2537, 53.3465], [-6.2538, 53.3466], [-6.2539, 53.3467], [-6.254, 53.3468], [-6.2541, 53.3469], [-6.2542, 53.3471], [-6.2542, 53.3472], [-6.2543, 53.3473]], [[-6.2494, 53.3436], [-6.2492, 53.3436], [-6.2488, 53.3435], [-6.2478, 53.3432], [-6.2477, 53.3432], [-6.2475, 53.3432], [-6.2472, 53.3431], [-6.2466, 53.343]], [[-6.2392, 53.3403], [-6.2392, 53.3404], [-6.2391, 53.3403], [-6.239, 53.3403], [-6.2378, 53.3397], [-6.2377, 53.3397], [-6.2376, 53.3397], [-6.2375, 53.3396], [-6.2374, 53.3396], [-6.2372, 53.3395], [-6.2369, 53.3394], [-6.237, 53.3393], [-6.2376, 53.3396], [-6.238, 53.3398], [-6.2392, 53.3403]], [[-6.228, 53.3333], [-6.2287, 53.3338], [-6.2289, 53.334]], [[-6.2225, 53.3291], [-6.2218, 53.3286], [-6.221, 53.3279], [-6.2209, 53.3279], [-6.221, 53.328], [-6.2211, 53.328], [-6.2211, 53.3281], [-6.2214, 53.3283], [-6.2221, 53.3289], [-6.2222, 53.3289], [-6.2225, 53.3291]], [[-6.2116, 53.3209], [-6.2114, 53.3207], [-6.2098, 53.3196]], [[-6.1966, 53.3109], [-6.196, 53.3106], [-6.1955, 53.3102], [-6.1951, 53.31], [-6.1948, 53.3098]], [[-6.1778, 53.3026], [-6.1783, 53.3028], [-6.1785, 53.3028], [-6.1785, 53.3029], [-6.1794, 53.3032], [-6.18, 53.3034], [-6.179, 53.303], [-6.1783, 53.3027], [-6.1778, 53.3026]], [[-6.1641, 53.2988], [-6.1651, 53.2992], [-6.1666, 53.2996]], [[-6.154, 53.2956], [-6.1536, 53.2956], [-6.1533, 53.2955], [-6.1527, 53.2955], [-6.1525, 53.2955], [-6.1522, 53.2955], [-6.1517, 53.2954], [-6.1512, 53.2955], [-6.1512, 53.2954], [-6.1514, 53.2954], [-6.1519, 53.2954], [-6.1523, 53.2954], [-6.1524, 53.2954], [-6.1526, 53.2954], [-6.1528, 53.2955], [-6.1531, 53.2955], [-6.1535, 53.2955], [-6.1539, 53.2956], [-6.154, 53.2956]], [[-6.1343, 53.2948], [-6.1344, 53.2949], [-6.1345, 53.2949], [-6.1346, 53.295], [-6.1347, 53.295], [-6.1348, 53.2951], [-6.1354, 53.2953], [-6.1353, 53.2953], [-6.1358, 53.2955], [-6.1361, 53.2956], [-6.1365, 53.2957], [-6.137, 53.2959], [-6.137, 53.2958], [-6.1367, 53.2958], [-6.1364, 53.2957], [-6.1361, 53.2956], [-6.1356, 53.2953], [-6.1351, 53.2952], [-6.1347, 53.295], [-6.1343, 53.2948]], [[-6.127, 53.2882], [-6.1271, 53.2881], [-6.1274, 53.2875], [-6.1275, 53.2873], [-6.1275, 53.2871], [-6.1276, 53.2869], [-6.1276, 53.2867]], [[-6.1243, 53.2817], [-6.1244, 53.2817], [-6.1241, 53.2816], [-6.1236, 53.2814], [-6.1232, 53.2813], [-6.123, 53.2812], [-6.122, 53.2809], [-6.122, 53.281]], [[-6.1017, 53.2753], [-6.1033, 53.2757], [-6.1036, 53.2758], [-6.1043, 53.2759]], [[-6.1131, 53.2546], [-6.113, 53.2548], [-6.113, 53.255], [-6.113, 53.2552], [-6.1129, 53.2552], [-6.1129, 53.2554], [-6.1129, 53.2556], [-6.1129, 53.2558], [-6.1129, 53.256], [-6.1129, 53.2562], [-6.113, 53.2559], [-6.113, 53.2555], [-6.113, 53.2554], [-6.113, 53.255], [-6.1131, 53.2546]], [[-6.1168, 53.2361], [-6.1168, 53.2363], [-6.1169, 53.2364], [-6.1169, 53.2365], [-6.1169, 53.2367], [-6.117, 53.237], [-6.1171, 53.2373], [-6.1171, 53.2376], [-6.1172, 53.2376], [-6.1171, 53.2372], [-6.117, 53.2368], [-6.117, 53.2367], [-6.1169, 53.2365], [-6.1169, 53.2363], [-6.1168, 53.2362], [-6.1168, 53.2361]], [[-6.1104, 53.221], [-6.1109, 53.2221], [-6.1112, 53.2227]], [[-6.0998, 53.2033], [-6.0998, 53.2034], [-6.0999, 53.2036], [-6.0999, 53.2038], [-6.1, 53.2039], [-6.1004, 53.2046], [-6.1006, 53.2048], [-6.1007, 53.2048], [-6.1005, 53.2045], [-6.1002, 53.204], [-6.1002, 53.2039], [-6.1001, 53.2039], [-6.0998, 53.2033]], [[-6.0604, 53.1437], [-6.0607, 53.144], [-6.0608, 53.1441], [-6.0612, 53.1446], [-6.0614, 53.1448], [-6.0618, 53.1452]], [[-6.1564, 53.4522], [-6.1566, 53.4507], [-6.1566, 53.4502], [-6.1567, 53.4501]], [[-6.1567, 53.4501], [-6.1567, 53.4499], [-6.1567, 53.4495], [-6.1568, 53.4488], [-6.1569, 53.4483], [-6.157, 53.4479], [-6.157, 53.4476], [-6.1571, 53.447]], [[-6.1571, 53.447], [-6.1571, 53.4468], [-6.1572, 53.4464], [-6.1572, 53.4461], [-6.1572, 53.4458], [-6.1572, 53.4455], [-6.1571, 53.4452], [-6.157, 53.4448], [-6.1569, 53.4439], [-6.1567, 53.4432]], [[-6.1567, 53.4432], [-6.1566, 53.4428], [-6.1565, 53.442], [-6.1562, 53.4408], [-6.1558, 53.439], [-6.1557, 53.4381], [-6.1555, 53.4372], [-6.1552, 53.4362], [-6.1551, 53.4356], [-6.1549, 53.4347], [-6.1548, 53.434], [-6.1546, 53.4333], [-6.1544, 53.4323], [-6.1542, 53.4312], [-6.1541, 53.4308]], [[-6.1541, 53.4308], [-6.1541, 53.4307]], [[-6.1541, 53.4307], [-6.154, 53.4305], [-6.154, 53.4303], [-6.1538, 53.4296], [-6.1536, 53.4286], [-6.1536, 53.4284]], [[-6.1536, 53.4284], [-6.1536, 53.4283]], [[-6.1536, 53.4283], [-6.1535, 53.4278], [-6.1532, 53.4264], [-6.1529, 53.4254], [-6.1529, 53.425]], [[-6.1529, 53.425], [-6.1528, 53.4248]], [[-6.1528, 53.4248], [-6.1527, 53.4245], [-6.1525, 53.4235], [-6.1523, 53.4225], [-6.1522, 53.4219], [-6.152, 53.421], [-6.1519, 53.4205]], [[-6.1519, 53.4205], [-6.1519, 53.4203]], [[-6.1519, 53.4203], [-6.1518, 53.4202], [-6.1516, 53.4193], [-6.1515, 53.4185], [-6.1514, 53.4182], [-6.1513, 53.4179], [-6.1513, 53.4177], [-6.1511, 53.4168], [-6.1508, 53.4153], [-6.1505, 53.414], [-6.1503, 53.4129], [-6.15, 53.4118], [-6.1497, 53.4103], [-6.1496, 53.41], [-6.1496, 53.4098]], [[-6.1496, 53.4098], [-6.1496, 53.4096]], [[-6.1496, 53.4096], [-6.1495, 53.4094], [-6.1494, 53.4088], [-6.1493, 53.4083], [-6.1492, 53.4078], [-6.1491, 53.4073], [-6.149, 53.4069]], [[-6.149, 53.4069], [-6.149, 53.4068]], [[-6.149, 53.4068], [-6.1489, 53.4065], [-6.1488, 53.4061], [-6.1488, 53.4057]], [[-6.1488, 53.4057], [-6.1488, 53.4056], [-6.1487, 53.4053], [-6.1487, 53.405], [-6.1487, 53.4046], [-6.1487, 53.4043], [-6.1487, 53.4039], [-6.1488, 53.4036], [-6.1488, 53.4033], [-6.1488, 53.403], [-6.149, 53.4025], [-6.149, 53.4022], [-6.1491, 53.4019], [-6.1492, 53.4017], [-6.1493, 53.4014], [-6.1493, 53.4011], [-6.1495, 53.4006], [-6.1495, 53.4005], [-6.1496, 53.4001]], [[-6.1496, 53.4001], [-6.1497, 53.3998], [-6.1498, 53.3994], [-6.15, 53.3989], [-6.15, 53.3987], [-6.1501, 53.3983], [-6.1502, 53.3981], [-6.1503, 53.3978], [-6.1504, 53.3976], [-6.1505, 53.3974], [-6.1505, 53.3972], [-6.1506, 53.397], [-6.1508, 53.3967], [-6.1509, 53.3965], [-6.151, 53.3964], [-6.1511, 53.3962], [-6.1512, 53.396], [-6.1513, 53.3959], [-6.1514, 53.3957], [-6.1516, 53.3954], [-6.1517, 53.3952], [-6.1519, 53.395], [-6.1521, 53.3947], [-6.1524, 53.3944], [-6.1526, 53.3941], [-6.1529, 53.3939], [-6.1531, 53.3936], [-6.1534, 53.3934], [-6.1536, 53.3931], [-6.1539, 53.3929], [-6.1543, 53.3925]], [[-6.1543, 53.3925], [-6.1546, 53.3923], [-6.1549, 53.392], [-6.1553, 53.3918], [-6.1559, 53.3913], [-6.156, 53.3913], [-6.1563, 53.3911], [-6.1567, 53.3908], [-6.1572, 53.3904]], [[-6.1572, 53.3904], [-6.1575, 53.3902]], [[-6.1575, 53.3902], [-6.1576, 53.3901], [-6.158, 53.3898], [-6.1586, 53.3894], [-6.1591, 53.389], [-6.1596, 53.3886], [-6.1603, 53.3881], [-6.1607, 53.3878], [-6.161, 53.3876], [-6.1615, 53.3873], [-6.1617, 53.3871], [-6.1621, 53.3868], [-6.1624, 53.3866], [-6.1629, 53.3863], [-6.1634, 53.386], [-6.164, 53.3857], [-6.1645, 53.3854], [-6.165, 53.3851], [-6.1657, 53.3848], [-6.1663, 53.3845], [-6.167, 53.3842]], [[-6.167, 53.3842], [-6.1677, 53.3839], [-6.1684, 53.3837], [-6.1692, 53.3834], [-6.1697, 53.3832], [-6.1703, 53.383], [-6.1706, 53.3829], [-6.1713, 53.3827], [-6.172, 53.3825], [-6.1727, 53.3823], [-6.1732, 53.3822], [-6.1736, 53.3821], [-6.174, 53.382], [-6.1744, 53.3819], [-6.1748, 53.3818], [-6.1751, 53.3818], [-6.1759, 53.3816]], [[-6.1759, 53.3816], [-6.1762, 53.3816], [-6.1769, 53.3815], [-6.1788, 53.3811]], [[-6.1788, 53.3811], [-6.179, 53.3811]], [[-6.179, 53.3811], [-6.1807, 53.3808], [-6.182, 53.3806], [-6.1828, 53.3805], [-6.1841, 53.3802], [-6.1849, 53.3801], [-6.186, 53.3799], [-6.187, 53.3798], [-6.1874, 53.3797], [-6.1883, 53.3795], [-6.1892, 53.3793], [-6.19, 53.3791], [-6.1906, 53.3789], [-6.191, 53.3788], [-6.1914, 53.3787], [-6.1918, 53.3785], [-6.1921, 53.3784], [-6.1925, 53.3783], [-6.1928, 53.3782], [-6.1931, 53.3781], [-6.1936, 53.3779], [-6.1939, 53.3777], [-6.1944, 53.3775], [-6.1951, 53.3772], [-6.1955, 53.377], [-6.1958, 53.3769]], [[-6.1958, 53.3769], [-6.1961, 53.3767], [-6.1966, 53.3765], [-6.197, 53.3763], [-6.1975, 53.376], [-6.198, 53.3758], [-6.1986, 53.3756], [-6.199, 53.3754], [-6.1994, 53.3752], [-6.1997, 53.375]], [[-6.1997, 53.375], [-6.2001, 53.3749], [-6.2004, 53.3747], [-6.2009, 53.3745]], [[-6.2009, 53.3745], [-6.201, 53.3744], [-6.2016, 53.3741], [-6.2017, 53.3741], [-6.2023, 53.3738], [-6.2029, 53.3735], [-6.2036, 53.3733], [-6.204, 53.3731], [-6.2044, 53.3729], [-6.205, 53.3728], [-6.2056, 53.3726], [-6.2065, 53.3723], [-6.2072, 53.3721], [-6.2074, 53.372]], [[-6.2074, 53.372], [-6.2078, 53.3719]], [[-6.2078, 53.3719], [-6.2079, 53.3719], [-6.2084, 53.3717], [-6.2092, 53.3715], [-6.2097, 53.3713], [-6.2101, 53.3712], [-6.2105, 53.3711], [-6.2109, 53.371], [-6.2112, 53.3709], [-6.2116, 53.3707], [-6.212, 53.3706], [-6.2124, 53.3704], [-6.2129, 53.3703], [-6.2132, 53.3701], [-6.2137, 53.3699], [-6.214, 53.3698], [-6.2145, 53.3696], [-6.2154, 53.3691], [-6.2163, 53.3686], [-6.2173, 53.3681], [-6.2175, 53.368], [-6.2185, 53.3675], [-6.2191, 53.3672], [-6.2196, 53.3669]], [[-6.2196, 53.3669], [-6.2199, 53.3667]], [[-6.2199, 53.3667], [-6.2226, 53.3654], [-6.2238, 53.3647], [-6.225, 53.3641], [-6.2252, 53.364]], [[-6.2252, 53.364], [-6.2258, 53.3637]], [[-6.2258, 53.3637], [-6.2265, 53.3633]], [[-6.2265, 53.3633], [-6.2266, 53.3633], [-6.2267, 53.3632], [-6.2276, 53.3628], [-6.2287, 53.3622], [-6.2288, 53.3621], [-6.2294, 53.3618], [-6.2304, 53.3613], [-6.2309, 53.3611], [-6.2311, 53.361], [-6.2311, 53.3609]], [[-6.2311, 53.3609], [-6.2314, 53.3608], [-6.2338, 53.3595], [-6.2339, 53.3595], [-6.2348, 53.359], [-6.2351, 53.3589]], [[-6.2351, 53.3589], [-6.2355, 53.3587], [-6.2357, 53.3586]], [[-6.2357, 53.3586], [-6.2364, 53.3582], [-6.2367, 53.3581]], [[-6.2367, 53.3581], [-6.2373, 53.3578], [-6.2377, 53.3576], [-6.2384, 53.3572], [-6.2399, 53.3564], [-6.24, 53.3564]], [[-6.24, 53.3564], [-6.2401, 53.3563]], [[-6.2401, 53.3563], [-6.2402, 53.3562], [-6.2404, 53.3562], [-6.2405, 53.3561], [-6.2408, 53.356], [-6.2414, 53.3557]], [[-6.2414, 53.3557], [-6.2416, 53.3556], [-6.2418, 53.3556], [-6.242, 53.3555]], [[-6.242, 53.3555], [-6.2422, 53.3554], [-6.2429, 53.355]], [[-6.2429, 53.355], [-6.2431, 53.3549]], [[-6.2431, 53.3549], [-6.2441, 53.3544], [-6.2443, 53.3543]], [[-6.2452, 53.3538], [-6.2451, 53.3538], [-6.2449, 53.3539], [-6.2448, 53.354], [-6.2446, 53.3541], [-6.2445, 53.3542], [-6.2443, 53.3543]], [[-6.2454, 53.3537], [-6.2453, 53.3537], [-6.2452, 53.3538]], [[-6.2455, 53.3536], [-6.2454, 53.3537]], [[-6.2455, 53.3536], [-6.2457, 53.3535]], [[-6.2457, 53.3535], [-6.2463, 53.3533], [-6.2465, 53.3532], [-6.2467, 53.3532], [-6.247, 53.353], [-6.2473, 53.3528], [-6.2475, 53.3528], [-6.2477, 53.3527], [-6.2479, 53.3526], [-6.2481, 53.3526], [-6.2483, 53.3525], [-6.2485, 53.3525]], [[-6.2485, 53.3525], [-6.2487, 53.3524], [-6.2488, 53.3524], [-6.249, 53.3523]], [[-6.249, 53.3523], [-6.2491, 53.3523]], [[-6.2491, 53.3523], [-6.2493, 53.3522], [-6.2497, 53.3521], [-6.25, 53.3519]], [[-6.25, 53.3519], [-6.2501, 53.3519], [-6.2504, 53.3518]], [[-6.2504, 53.3518], [-6.2508, 53.3515], [-6.2511, 53.3514]], [[-6.2511, 53.3514], [-6.2516, 53.3511]], [[-6.2516, 53.3511], [-6.2527, 53.3505]], [[-6.2527, 53.3505], [-6.2529, 53.3505]], [[-6.2529, 53.3505], [-6.2532, 53.3503]], [[-6.2532, 53.3503], [-6.2533, 53.3502]], [[-6.2533, 53.3502], [-6.2534, 53.3501]], [[-6.2534, 53.3501], [-6.2537, 53.3499]], [[-6.2537, 53.3499], [-6.2538, 53.3498], [-6.2539, 53.3497]], [[-6.2539, 53.3497], [-6.2541, 53.3495]], [[-6.2541, 53.3495], [-6.2542, 53.3493], [-6.2544, 53.3491]], [[-6.2544, 53.3491], [-6.2544, 53.349], [-6.2546, 53.3487], [-6.2546, 53.3486], [-6.2546, 53.3484]], [[-6.2546, 53.3484], [-6.2546, 53.3482]], [[-6.2546, 53.3482], [-6.2546, 53.3481], [-6.2546, 53.348], [-6.2546, 53.3479], [-6.2545, 53.3477]], [[-6.2545, 53.3477], [-6.2545, 53.3475], [-6.2544, 53.3474]], [[-6.2544, 53.3474], [-6.2544, 53.3473], [-6.2543, 53.3472], [-6.2543, 53.3471], [-6.2542, 53.3471], [-6.2542, 53.347], [-6.254, 53.3468]], [[-6.254, 53.3468], [-6.2539, 53.3467]], [[-6.2539, 53.3467], [-6.2538, 53.3466], [-6.2537, 53.3465], [-6.2535, 53.3463], [-6.2532, 53.3461], [-6.2531, 53.346]], [[-6.2531, 53.346], [-6.2529, 53.3459], [-6.2528, 53.3458]], [[-6.2528, 53.3458], [-6.2524, 53.3454], [-6.2523, 53.3453]], [[-6.2523, 53.3453], [-6.2521, 53.3451]], [[-6.2521, 53.3451], [-6.2519, 53.345], [-6.2516, 53.3447]], [[-6.2516, 53.3447], [-6.2512, 53.3444]], [[-6.2512, 53.3444], [-6.2512, 53.3443], [-6.2511, 53.3443], [-6.2509, 53.3442], [-6.2507, 53.3441], [-6.2506, 53.344], [-6.2505, 53.3439], [-6.2503, 53.3439], [-6.2501, 53.3438], [-6.25, 53.3437], [-6.2498, 53.3437]], [[-6.2498, 53.3437], [-6.2494, 53.3436]], [[-6.2494, 53.3436], [-6.2492, 53.3435], [-6.2485, 53.3434]], [[-6.2485, 53.3434], [-6.2483, 53.3433]], [[-6.2483, 53.3433], [-6.2472, 53.3431], [-6.2466, 53.3429]], [[-6.2466, 53.3429], [-6.2465, 53.3429]], [[-6.2465, 53.3429], [-6.2462, 53.3428]], [[-6.2462, 53.3428], [-6.246, 53.3428], [-6.2455, 53.3426], [-6.2451, 53.3426], [-6.245, 53.3425]], [[-6.245, 53.3425], [-6.2447, 53.3424]], [[-6.2447, 53.3424], [-6.2441, 53.3422]], [[-6.2441, 53.3422], [-6.244, 53.3422]], [[-6.244, 53.3422], [-6.2436, 53.3421], [-6.2423, 53.3416], [-6.2415, 53.3413]], [[-6.2415, 53.3413], [-6.2414, 53.3413]], [[-6.2414, 53.3413], [-6.241, 53.3411], [-6.2409, 53.341]], [[-6.2409, 53.341], [-6.2405, 53.3409], [-6.2404, 53.3408], [-6.2395, 53.3404], [-6.2394, 53.3404]], [[-6.2394, 53.3404], [-6.2392, 53.3403], [-6.2391, 53.3403], [-6.239, 53.3402]], [[-6.239, 53.3402], [-6.2383, 53.3399], [-6.2379, 53.3397], [-6.2371, 53.3394], [-6.2367, 53.3392]], [[-6.2367, 53.3392], [-6.2366, 53.3391]], [[-6.2366, 53.3391], [-6.236, 53.3388], [-6.2355, 53.3385], [-6.2349, 53.3382], [-6.2344, 53.3379]], [[-6.2344, 53.3379], [-6.2339, 53.3376]], [[-6.2339, 53.3376], [-6.2338, 53.3376]], [[-6.2338, 53.3376], [-6.2334, 53.3373]], [[-6.2334, 53.3373], [-6.2332, 53.3372]], [[-6.2332, 53.3372], [-6.2328, 53.3369], [-6.2313, 53.3358], [-6.2308, 53.3354]], [[-6.2308, 53.3354], [-6.2304, 53.3351]], [[-6.2304, 53.3351], [-6.2293, 53.3343]], [[-6.2293, 53.3343], [-6.2291, 53.3341], [-6.2289, 53.3339], [-6.2282, 53.3334], [-6.228, 53.3332]], [[-6.228, 53.3332], [-6.2279, 53.3332]], [[-6.2279, 53.3332], [-6.2278, 53.3331]], [[-6.2278, 53.3331], [-6.2277, 53.333], [-6.227, 53.3325], [-6.2258, 53.3316], [-6.2245, 53.3306], [-6.2238, 53.3301], [-6.2234, 53.3297], [-6.2233, 53.3296], [-6.2231, 53.3295], [-6.2228, 53.3293], [-6.222, 53.3287], [-6.2217, 53.3284], [-6.2211, 53.328], [-6.221, 53.3279], [-6.2208, 53.3278]], [[-6.2208, 53.3278], [-6.2203, 53.3274], [-6.2198, 53.327], [-6.2193, 53.3266], [-6.2188, 53.3263], [-6.2186, 53.3261], [-6.218, 53.3257], [-6.2177, 53.3254], [-6.2172, 53.325], [-6.2168, 53.3247], [-6.2161, 53.3242], [-6.2157, 53.3239], [-6.2151, 53.3234], [-6.2146, 53.3231]], [[-6.2146, 53.3231], [-6.2142, 53.3227], [-6.2135, 53.3222], [-6.213, 53.3219], [-6.2122, 53.3213], [-6.2117, 53.321]], [[-6.2117, 53.321], [-6.2115, 53.3208], [-6.2113, 53.3206], [-6.2108, 53.3203], [-6.2102, 53.3199], [-6.2098, 53.3196], [-6.2093, 53.3193], [-6.2089, 53.319], [-6.2084, 53.3187], [-6.2079, 53.3184], [-6.2073, 53.318], [-6.2068, 53.3176], [-6.206, 53.3171], [-6.2056, 53.3168], [-6.205, 53.3165], [-6.2049, 53.3164], [-6.2042, 53.3159]], [[-6.2042, 53.3159], [-6.2037, 53.3156], [-6.2032, 53.3153], [-6.2027, 53.3149], [-6.2021, 53.3146], [-6.2012, 53.314], [-6.2007, 53.3136], [-6.2, 53.3131], [-6.1992, 53.3126], [-6.1986, 53.3122], [-6.1974, 53.3114], [-6.1963, 53.3107], [-6.1952, 53.31], [-6.1948, 53.3098], [-6.194, 53.3093], [-6.1936, 53.3091], [-6.193, 53.3088], [-6.1926, 53.3086], [-6.192, 53.3083], [-6.1914, 53.308], [-6.1906, 53.3077], [-6.1897, 53.3073], [-6.1873, 53.3063], [-6.1858, 53.3057], [-6.1848, 53.3053], [-6.1838, 53.3049], [-6.1823, 53.3043], [-6.1809, 53.3037], [-6.1803, 53.3035], [-6.1799, 53.3033], [-6.1787, 53.3029], [-6.1785, 53.3028], [-6.178, 53.3026], [-6.1773, 53.3024], [-6.1757, 53.3019], [-6.175, 53.3017], [-6.1743, 53.3015], [-6.1732, 53.3012], [-6.1713, 53.3008]], [[-6.1709, 53.3007], [-6.1696, 53.3004], [-6.1683, 53.3001], [-6.1677, 53.2999], [-6.1668, 53.2997], [-6.1662, 53.2995], [-6.1656, 53.2993], [-6.1652, 53.2992], [-6.1644, 53.2989], [-6.1636, 53.2987], [-6.163, 53.2984], [-6.1625, 53.2983], [-6.162, 53.2981], [-6.1613, 53.2978], [-6.1605, 53.2975], [-6.1602, 53.2974], [-6.1596, 53.2972], [-6.1591, 53.297], [-6.1585, 53.2967], [-6.1574, 53.2963], [-6.157, 53.2962], [-6.1567, 53.2961], [-6.1564, 53.296], [-6.1562, 53.296], [-6.1559, 53.2959], [-6.1556, 53.2959], [-6.1553, 53.2958], [-6.1549, 53.2957], [-6.1546, 53.2957], [-6.154, 53.2956], [-6.1539, 53.2955], [-6.1536, 53.2955], [-6.1532, 53.2955], [-6.1529, 53.2954], [-6.1526, 53.2954], [-6.1523, 53.2954], [-6.1519, 53.2954], [-6.1515, 53.2954], [-6.1512, 53.2954], [-6.1509, 53.2954], [-6.1506, 53.2954], [-6.1504, 53.2954], [-6.15, 53.2955], [-6.1488, 53.2956], [-6.1473, 53.2958], [-6.1466, 53.2958], [-6.1465, 53.2958], [-6.1433, 53.2962], [-6.1426, 53.2963], [-6.1424, 53.2963]], [[-6.1424, 53.2963], [-6.1421, 53.2963], [-6.1419, 53.2963], [-6.1416, 53.2963], [-6.1413, 53.2963], [-6.1411, 53.2963], [-6.141, 53.2963], [-6.1405, 53.2963], [-6.1403, 53.2963], [-6.1398, 53.2963], [-6.1393, 53.2963], [-6.139, 53.2962], [-6.1386, 53.2962], [-6.1384, 53.2961], [-6.1379, 53.296], [-6.1376, 53.296], [-6.1374, 53.2959], [-6.137, 53.2958], [-6.1368, 53.2957], [-6.1364, 53.2956], [-6.1361, 53.2955], [-6.1359, 53.2954], [-6.1355, 53.2953], [-6.1351, 53.2952], [-6.1347, 53.2949]], [[-6.1347, 53.2949], [-6.1344, 53.2948]], [[-6.1344, 53.2948], [-6.134, 53.2946]], [[-6.1308, 53.293], [-6.1301, 53.2925], [-6.1297, 53.2922], [-6.1294, 53.292], [-6.1291, 53.2917], [-6.1287, 53.2915]], [[-6.1278, 53.2906], [-6.1277, 53.2904], [-6.1273, 53.2901], [-6.1273, 53.29], [-6.1272, 53.2899], [-6.1271, 53.2898], [-6.127, 53.2897], [-6.127, 53.2896], [-6.1269, 53.2894], [-6.1269, 53.2892], [-6.1268, 53.289], [-6.1269, 53.2888], [-6.1269, 53.2885], [-6.1269, 53.2884]], [[-6.127, 53.2882], [-6.1271, 53.288], [-6.1273, 53.2877], [-6.1275, 53.2873], [-6.1276, 53.2871], [-6.1276, 53.2869], [-6.1276, 53.2866], [-6.1276, 53.2865], [-6.1276, 53.2863], [-6.1277, 53.2859], [-6.1277, 53.2857], [-6.1277, 53.2854]], [[-6.1277, 53.2854], [-6.1277, 53.2852], [-6.1276, 53.2848], [-6.1276, 53.2843], [-6.1275, 53.2839], [-6.1273, 53.2836], [-6.1271, 53.2833], [-6.1268, 53.283], [-6.1265, 53.2827], [-6.1262, 53.2825], [-6.1258, 53.2822], [-6.1255, 53.2821], [-6.1252, 53.2819], [-6.1247, 53.2818], [-6.1242, 53.2816], [-6.1231, 53.2812], [-6.1162, 53.2792], [-6.1145, 53.2786], [-6.1125, 53.2781], [-6.1114, 53.2777]], [[-6.1111, 53.2776], [-6.1099, 53.2773], [-6.1091, 53.2771], [-6.1082, 53.2769], [-6.1074, 53.2767], [-6.107, 53.2766], [-6.1062, 53.2764], [-6.1057, 53.2763], [-6.1047, 53.276], [-6.1046, 53.276], [-6.1032, 53.2756], [-6.101, 53.2751]], [[-6.101, 53.2751], [-6.1008, 53.2751], [-6.1006, 53.275], [-6.1002, 53.2748], [-6.0997, 53.2747], [-6.0996, 53.2746], [-6.0994, 53.2745], [-6.099, 53.2743], [-6.0987, 53.2742], [-6.0984, 53.274], [-6.0981, 53.2738], [-6.0978, 53.2736], [-6.0976, 53.2734], [-6.0973, 53.2732], [-6.0972, 53.273], [-6.097, 53.2729], [-6.0968, 53.2727], [-6.0967, 53.2725], [-6.0966, 53.2723], [-6.0965, 53.2722], [-6.0965, 53.272], [-6.0964, 53.2718]], [[-6.0968, 53.2706], [-6.0969, 53.2704], [-6.0969, 53.2703], [-6.097, 53.2702], [-6.0972, 53.2701], [-6.0974, 53.2699], [-6.0976, 53.2698], [-6.0978, 53.2697], [-6.098, 53.2696], [-6.0983, 53.2695], [-6.0988, 53.2692], [-6.0994, 53.269]], [[-6.0994, 53.269], [-6.0997, 53.2689], [-6.1004, 53.2686], [-6.1012, 53.2683], [-6.102, 53.2681], [-6.1024, 53.268], [-6.1029, 53.2678], [-6.1033, 53.2677], [-6.1037, 53.2675], [-6.1047, 53.2671], [-6.1053, 53.2669], [-6.1057, 53.2668], [-6.106, 53.2666], [-6.1062, 53.2665], [-6.1064, 53.2664], [-6.1065, 53.2663], [-6.1068, 53.2662], [-6.107, 53.2661], [-6.1071, 53.2659]], [[-6.1071, 53.2659], [-6.1073, 53.2658]], [[-6.1073, 53.2658], [-6.1075, 53.2656], [-6.1077, 53.2653], [-6.1079, 53.2651], [-6.108, 53.2649], [-6.1083, 53.2644], [-6.1086, 53.2639]], [[-6.1088, 53.2637], [-6.1089, 53.2636], [-6.1092, 53.2633], [-6.1094, 53.263], [-6.1099, 53.2625], [-6.1104, 53.262], [-6.1107, 53.2617], [-6.111, 53.2614], [-6.1113, 53.2611], [-6.1115, 53.2608], [-6.1117, 53.2606], [-6.1119, 53.2602], [-6.1121, 53.2599], [-6.1122, 53.2598], [-6.1122, 53.2597], [-6.1123, 53.2595], [-6.1124, 53.2592], [-6.1125, 53.2589], [-6.1128, 53.258], [-6.1129, 53.2576]], [[-6.1129, 53.2576], [-6.1129, 53.2575]], [[-6.1129, 53.2575], [-6.1129, 53.2572], [-6.1129, 53.2569], [-6.1129, 53.2563]], [[-6.1129, 53.2563], [-6.113, 53.2559], [-6.113, 53.2556], [-6.113, 53.2554], [-6.1131, 53.2548], [-6.1131, 53.2546], [-6.1131, 53.2544], [-6.1132, 53.2541], [-6.1132, 53.2539], [-6.1133, 53.2536], [-6.1133, 53.2535], [-6.1133, 53.2533], [-6.1133, 53.2531], [-6.1134, 53.2523], [-6.1135, 53.2516]], [[-6.1135, 53.2516], [-6.1135, 53.2515]], [[-6.1135, 53.2515], [-6.1135, 53.2513], [-6.1135, 53.251], [-6.1135, 53.2508], [-6.1136, 53.2505], [-6.1136, 53.2501], [-6.1136, 53.2499], [-6.1137, 53.2496], [-6.1138, 53.2493], [-6.1139, 53.2489], [-6.1141, 53.2485], [-6.1143, 53.248], [-6.1144, 53.2479], [-6.1147, 53.2475], [-6.1148, 53.2473], [-6.1149, 53.2472], [-6.1151, 53.2469], [-6.1154, 53.2466], [-6.1157, 53.2462], [-6.116, 53.2458]], [[-6.116, 53.2458], [-6.1161, 53.2457]], [[-6.1161, 53.2457], [-6.1163, 53.2454], [-6.1165, 53.2451], [-6.1166, 53.2448], [-6.1168, 53.2444]], [[-6.1168, 53.2444], [-6.1169, 53.2443]], [[-6.1169, 53.2443], [-6.117, 53.244], [-6.1171, 53.2434], [-6.1172, 53.2429], [-6.1172, 53.2422], [-6.1172, 53.2416], [-6.1172, 53.2412], [-6.1172, 53.2408], [-6.1172, 53.2404], [-6.1173, 53.24], [-6.1173, 53.2396], [-6.1173, 53.2394], [-6.1173, 53.2391], [-6.1173, 53.2382], [-6.1172, 53.2378], [-6.1172, 53.2376], [-6.1172, 53.2374], [-6.1171, 53.2371], [-6.117, 53.2367], [-6.1168, 53.2361], [-6.1167, 53.2359], [-6.1166, 53.2355], [-6.1164, 53.2351], [-6.1162, 53.2346], [-6.116, 53.234], [-6.1153, 53.2325], [-6.1152, 53.2321]], [[-6.1152, 53.2321], [-6.1151, 53.2319]], [[-6.1151, 53.2319], [-6.115, 53.2316], [-6.1145, 53.2305], [-6.114, 53.2293], [-6.1137, 53.2287], [-6.1134, 53.228], [-6.1131, 53.2272], [-6.1127, 53.2261], [-6.1123, 53.2252], [-6.1117, 53.2239], [-6.1113, 53.223], [-6.1109, 53.222], [-6.1098, 53.2194], [-6.1093, 53.2183], [-6.1093, 53.2182], [-6.1091, 53.2178], [-6.1091, 53.2176], [-6.109, 53.2174], [-6.1087, 53.2168], [-6.1084, 53.2161], [-6.1081, 53.2155], [-6.1078, 53.2149], [-6.1075, 53.2146], [-6.107, 53.214], [-6.1067, 53.2137], [-6.1063, 53.2133], [-6.1059, 53.2129], [-6.1054, 53.2125], [-6.1051, 53.2121], [-6.1049, 53.2118], [-6.1045, 53.2114], [-6.1042, 53.211], [-6.104, 53.2105]], [[-6.104, 53.2105], [-6.1039, 53.2104], [-6.1036, 53.2099]], [[-6.1036, 53.2099], [-6.1036, 53.2098]], [[-6.1036, 53.2098], [-6.1034, 53.2093], [-6.1033, 53.2089]], [[-6.1033, 53.2089], [-6.1031, 53.2084]], [[-6.1031, 53.2084], [-6.1029, 53.208], [-6.1027, 53.2076], [-6.1025, 53.2073], [-6.1024, 53.2071]], [[-6.1024, 53.2071], [-6.1023, 53.207]], [[-6.1023, 53.207], [-6.1022, 53.2068], [-6.1021, 53.2068], [-6.1019, 53.2065], [-6.1017, 53.2062], [-6.1015, 53.2059], [-6.1013, 53.2056], [-6.1013, 53.2055], [-6.1011, 53.2053], [-6.101, 53.2052]], [[-6.101, 53.2052], [-6.1007, 53.2048], [-6.1004, 53.2043], [-6.1003, 53.2042], [-6.0999, 53.2034], [-6.0998, 53.2033]], [[-6.0998, 53.2033], [-6.0997, 53.203]], [[-6.0997, 53.203], [-6.0996, 53.2029]], [[-6.0996, 53.2029], [-6.0996, 53.2028]], [[-6.0996, 53.2028], [-6.0995, 53.2027], [-6.0993, 53.2024]], [[-6.0993, 53.2024], [-6.0991, 53.2021]], [[-6.0991, 53.2021], [-6.099, 53.2019]], [[-6.0979, 53.2003], [-6.0987, 53.2014], [-6.099, 53.2019]], [[-6.0979, 53.2002], [-6.0979, 53.2003]], [[-6.0974, 53.1994], [-6.0974, 53.1995], [-6.0979, 53.2002]], [[-6.0973, 53.1994], [-6.0974, 53.1994]], [[-6.0973, 53.1994], [-6.0972, 53.1992]], [[-6.0972, 53.1992], [-6.0971, 53.199], [-6.0968, 53.1985], [-6.0964, 53.1979], [-6.0961, 53.1976], [-6.0958, 53.1973], [-6.0956, 53.1971]], [[-6.0955, 53.197], [-6.0956, 53.1971]], [[-6.0912, 53.1957], [-6.0914, 53.1957], [-6.092, 53.1957], [-6.0922, 53.1958], [-6.0925, 53.1958], [-6.0928, 53.1959], [-6.0932, 53.196], [-6.0937, 53.1961], [-6.0941, 53.1962], [-6.0941, 53.1963], [-6.0943, 53.1963], [-6.0944, 53.1964], [-6.0946, 53.1965], [-6.0948, 53.1966], [-6.0951, 53.1967], [-6.0952, 53.1968], [-6.0953, 53.1969], [-6.0954, 53.1969], [-6.0955, 53.197]], [[-6.0817, 53.1926], [-6.0822, 53.1928], [-6.0828, 53.1931], [-6.0835, 53.1935], [-6.0841, 53.1939], [-6.0845, 53.1941], [-6.0848, 53.1942], [-6.0851, 53.1944], [-6.0853, 53.1945], [-6.0858, 53.1947], [-6.0863, 53.1949], [-6.0866, 53.195], [-6.0871, 53.1951], [-6.0875, 53.1952], [-6.0877, 53.1953], [-6.088, 53.1953], [-6.0883, 53.1954], [-6.0887, 53.1955], [-6.0891, 53.1955], [-6.0896, 53.1956], [-6.0899, 53.1956], [-6.0901, 53.1956], [-6.0906, 53.1956], [-6.0912, 53.1957]], [[-6.0785, 53.19], [-6.0786, 53.1902], [-6.0787, 53.1902], [-6.0788, 53.1905], [-6.0789, 53.1905], [-6.0791, 53.1908], [-6.0795, 53.1912], [-6.0797, 53.1913], [-6.08, 53.1916], [-6.0805, 53.1919], [-6.0811, 53.1923], [-6.0817, 53.1926]], [[-6.0783, 53.1898], [-6.0782, 53.1896], [-6.0781, 53.1894]], [[-6.0772, 53.187], [-6.0772, 53.1869], [-6.0772, 53.1868], [-6.0772, 53.1866], [-6.0772, 53.1865], [-6.0772, 53.1863], [-6.0772, 53.1861], [-6.0772, 53.1859], [-6.0773, 53.1856], [-6.0773, 53.1853], [-6.0773, 53.1849], [-6.0772, 53.1845], [-6.0772, 53.1843], [-6.0771, 53.184], [-6.0771, 53.1838], [-6.077, 53.1836], [-6.0769, 53.1833], [-6.0768, 53.1832], [-6.0767, 53.1831], [-6.0766, 53.1829]], [[-6.0757, 53.1818], [-6.0757, 53.1817], [-6.0756, 53.1816], [-6.0755, 53.1814], [-6.0755, 53.1812], [-6.0755, 53.181], [-6.0754, 53.1805], [-6.0754, 53.1801]], [[-6.0754, 53.1799], [-6.0754, 53.1797]], [[-6.0754, 53.1795], [-6.0753, 53.1794], [-6.0753, 53.1792], [-6.0753, 53.1791], [-6.0753, 53.1789], [-6.0752, 53.1787], [-6.0752, 53.1786], [-6.0751, 53.1784], [-6.0751, 53.1782], [-6.075, 53.178], [-6.0749, 53.1779], [-6.0748, 53.1777], [-6.0747, 53.1775], [-6.0746, 53.1773], [-6.0745, 53.177], [-6.0744, 53.1768], [-6.0743, 53.1767], [-6.0743, 53.1766], [-6.0743, 53.1765], [-6.0743, 53.1764]], [[-6.0747, 53.1747], [-6.0748, 53.1745], [-6.075, 53.1743], [-6.0751, 53.1741], [-6.0752, 53.174], [-6.0756, 53.1736]], [[-6.0786, 53.1651], [-6.0786, 53.1648], [-6.0785, 53.1646], [-6.0783, 53.1641]], [[-6.0783, 53.1641], [-6.0779, 53.1629], [-6.0777, 53.162], [-6.0767, 53.1591], [-6.0765, 53.1583], [-6.0763, 53.1579], [-6.0762, 53.1576], [-6.0761, 53.1574], [-6.0759, 53.1571], [-6.0758, 53.1569], [-6.0757, 53.1568]], [[-6.0757, 53.1568], [-6.0754, 53.1564], [-6.0751, 53.156], [-6.0748, 53.1558], [-6.0745, 53.1555], [-6.0742, 53.1552], [-6.0739, 53.155], [-6.0735, 53.1548], [-6.0731, 53.1545], [-6.0722, 53.154], [-6.0714, 53.1535], [-6.071, 53.1533], [-6.0707, 53.1531], [-6.0704, 53.1529], [-6.0702, 53.1527], [-6.0698, 53.1524], [-6.0695, 53.1521], [-6.0692, 53.1518], [-6.0689, 53.1515], [-6.0686, 53.1511], [-6.0681, 53.1503]], [[-6.0681, 53.1503], [-6.0681, 53.1502]], [[-6.0681, 53.1502], [-6.0678, 53.1499], [-6.0674, 53.1495], [-6.0672, 53.1492], [-6.0668, 53.1488], [-6.0665, 53.1485], [-6.0661, 53.1482], [-6.0659, 53.148]], [[-6.0659, 53.148], [-6.0657, 53.1478]], [[-6.0657, 53.1478], [-6.0652, 53.1474], [-6.0647, 53.1471], [-6.0638, 53.1465], [-6.0631, 53.1461], [-6.0628, 53.1459]], [[-6.0628, 53.1459], [-6.0623, 53.1455], [-6.0621, 53.1453]], [[-6.0621, 53.1453], [-6.062, 53.1453], [-6.0619, 53.1452], [-6.0617, 53.145], [-6.0615, 53.1448], [-6.0612, 53.1445], [-6.061, 53.1444], [-6.0609, 53.1443], [-6.0608, 53.1442], [-6.0608, 53.1441], [-6.0606, 53.1439], [-6.0605, 53.1437]], [[-6.0619, 53.1451], [-6.0617, 53.145], [-6.0615, 53.1447], [-6.0613, 53.1446], [-6.061, 53.1442], [-6.0608, 53.144], [-6.0607, 53.1439], [-6.0605, 53.1437]], [[-6.1008, 53.2047], [-6.1011, 53.2052], [-6.1012, 53.2052], [-6.1012, 53.2051], [-6.1011, 53.205], [-6.1012, 53.205], [-6.1011, 53.205], [-6.1011, 53.2049], [-6.101, 53.2048], [-6.1009, 53.2047], [-6.1008, 53.2045], [-6.1007, 53.2043], [-6.1005, 53.2041], [-6.1002, 53.2036], [-6.0997, 53.2029], [-6.1, 53.2033], [-6.1003, 53.2038], [-6.1006, 53.2043], [-6.1007, 53.2045], [-6.1008, 53.2047]], [[-6.1106, 53.2209], [-6.111, 53.2221], [-6.1113, 53.2227]], [[-6.1173, 53.2376], [-6.1172, 53.2371], [-6.1171, 53.2366], [-6.1169, 53.2361], [-6.1171, 53.2364], [-6.1171, 53.2365], [-6.1171, 53.2366], [-6.1172, 53.2366], [-6.1172, 53.2367], [-6.1171, 53.2367], [-6.1172, 53.2369], [-6.1172, 53.237], [-6.1172, 53.2371], [-6.1173, 53.2373], [-6.1173, 53.2376]], [[-6.1132, 53.2546], [-6.1131, 53.2551], [-6.1131, 53.2554], [-6.1131, 53.2556], [-6.1131, 53.2557], [-6.113, 53.2559], [-6.113, 53.256], [-6.113, 53.2562], [-6.1131, 53.256], [-6.1131, 53.2559], [-6.1131, 53.2558], [-6.1131, 53.2557], [-6.1131, 53.2556], [-6.1131, 53.2554], [-6.1132, 53.2554], [-6.1132, 53.2553], [-6.1132, 53.2551], [-6.1132, 53.255], [-6.1132, 53.2549], [-6.1132, 53.2546]], [[-6.1018, 53.2752], [-6.1033, 53.2756], [-6.1045, 53.2759]], [[-6.1244, 53.2816], [-6.1242, 53.2815], [-6.124, 53.2815], [-6.1236, 53.2813], [-6.123, 53.2812], [-6.1226, 53.281], [-6.1221, 53.2809]], [[-6.1271, 53.2883], [-6.1271, 53.2881], [-6.1273, 53.2878], [-6.1275, 53.2875], [-6.1276, 53.2873], [-6.1276, 53.2871], [-6.1277, 53.2869], [-6.1277, 53.2867]], [[-6.1371, 53.2958], [-6.1367, 53.2956], [-6.1364, 53.2956], [-6.1365, 53.2955], [-6.1361, 53.2954], [-6.1357, 53.2952], [-6.1352, 53.295], [-6.1348, 53.2949], [-6.1347, 53.2948], [-6.1343, 53.2947], [-6.1347, 53.2949], [-6.1348, 53.2949], [-6.1351, 53.2951], [-6.1353, 53.2952], [-6.1356, 53.2953], [-6.136, 53.2955], [-6.1363, 53.2956], [-6.1366, 53.2957], [-6.137, 53.2958], [-6.1371, 53.2958]], [[-6.154, 53.2955], [-6.1535, 53.2954], [-6.1533, 53.2954], [-6.1532, 53.2954], [-6.1528, 53.2954], [-6.1528, 53.2953], [-6.1523, 53.2953], [-6.1522, 53.2953], [-6.1521, 53.2953], [-6.152, 53.2953], [-6.1519, 53.2953], [-6.1518, 53.2953], [-6.1513, 53.2953], [-6.1511, 53.2953], [-6.1511, 53.2954], [-6.1514, 53.2954], [-6.1518, 53.2954], [-6.152, 53.2954], [-6.1524, 53.2954], [-6.1527, 53.2954], [-6.1531, 53.2954], [-6.1534, 53.2954], [-6.1537, 53.2955], [-6.154, 53.2955]], [[-6.1639, 53.2987], [-6.1652, 53.2991], [-6.1661, 53.2994], [-6.1666, 53.2995]], [[-6.1779, 53.3025], [-6.1781, 53.3026], [-6.1782, 53.3026], [-6.1784, 53.3027], [-6.1785, 53.3027], [-6.1786, 53.3027], [-6.179, 53.3029], [-6.1791, 53.3029], [-6.1801, 53.3033], [-6.1797, 53.3032], [-6.1793, 53.303], [-6.1789, 53.3029], [-6.1782, 53.3027], [-6.1779, 53.3025]], [[-6.1949, 53.3098], [-6.1951, 53.3099], [-6.1954, 53.3101], [-6.1957, 53.3103], [-6.1961, 53.3105], [-6.1964, 53.3107], [-6.1967, 53.3109]], [[-6.2117, 53.3209], [-6.2116, 53.3208], [-6.2114, 53.3206], [-6.2109, 53.3203], [-6.2099, 53.3196]], [[-6.221, 53.3278], [-6.221, 53.3279], [-6.2211, 53.3279], [-6.2212, 53.328], [-6.2216, 53.3283], [-6.222, 53.3286], [-6.2224, 53.3289], [-6.2227, 53.3291], [-6.222, 53.3285], [-6.2217, 53.3283], [-6.2216, 53.3282], [-6.2213, 53.328], [-6.2212, 53.328], [-6.2211, 53.3279], [-6.221, 53.3278]], [[-6.229, 53.334], [-6.2289, 53.3339], [-6.228, 53.3332]], [[-6.2397, 53.3405], [-6.2397, 53.3404], [-6.2392, 53.3402], [-6.2383, 53.3398], [-6.2378, 53.3395], [-6.2375, 53.3394], [-6.2375, 53.3395], [-6.2378, 53.3396], [-6.2383, 53.3398], [-6.2397, 53.3405]], [[-6.2494, 53.3435], [-6.249, 53.3434], [-6.2489, 53.3434], [-6.2485, 53.3433], [-6.2478, 53.3431], [-6.2475, 53.3431], [-6.2473, 53.343], [-6.2467, 53.3429]], [[-6.2531, 53.3459], [-6.2534, 53.3462], [-6.2536, 53.3463], [-6.2537, 53.3464], [-6.2539, 53.3466], [-6.2541, 53.3467], [-6.2542, 53.3468], [-6.2543, 53.3469], [-6.2544, 53.3471], [-6.2545, 53.3473]], [[-6.2287, 53.3622], [-6.2288, 53.3623], [-6.2273, 53.363], [-6.2272, 53.3631], [-6.2271, 53.3631], [-6.227, 53.3632], [-6.2268, 53.3633], [-6.2272, 53.363], [-6.2287, 53.3622]], [[-6.204, 53.3732], [-6.2038, 53.3732], [-6.2039, 53.3732], [-6.2042, 53.3731], [-6.2045, 53.373], [-6.205, 53.3728], [-6.2056, 53.3726], [-6.2066, 53.3723], [-6.2058, 53.3726], [-6.2056, 53.3726], [-6.2054, 53.3727], [-6.2053, 53.3727], [-6.2051, 53.3728], [-6.205, 53.3728], [-6.2049, 53.3729], [-6.2046, 53.373], [-6.2044, 53.373], [-6.2044, 53.3731], [-6.2043, 53.3731], [-6.204, 53.3732]], [[-6.1938, 53.3779], [-6.1938, 53.3778], [-6.1933, 53.3781], [-6.1928, 53.3782], [-6.1924, 53.3784], [-6.192, 53.3785], [-6.1918, 53.3786], [-6.1917, 53.3786], [-6.1915, 53.3787], [-6.1914, 53.3787], [-6.1914, 53.3788], [-6.1917, 53.3787], [-6.1919, 53.3786], [-6.1921, 53.3785], [-6.1925, 53.3784], [-6.1928, 53.3783], [-6.1933, 53.3781], [-6.1937, 53.3779], [-6.1938, 53.3779]], [[-6.1782, 53.3813], [-6.1777, 53.3814], [-6.1772, 53.3815], [-6.1771, 53.3815], [-6.1766, 53.3816], [-6.1765, 53.3816], [-6.1762, 53.3817], [-6.1761, 53.3817], [-6.1757, 53.3817], [-6.1755, 53.3818], [-6.1754, 53.3818], [-6.1756, 53.3817], [-6.1762, 53.3816], [-6.1765, 53.3816], [-6.1768, 53.3815], [-6.1772, 53.3815], [-6.1775, 53.3814], [-6.1781, 53.3813], [-6.1782, 53.3813]], [[-6.1623, 53.3868], [-6.1619, 53.387], [-6.1616, 53.3873], [-6.1613, 53.3874], [-6.161, 53.3877], [-6.1608, 53.3879], [-6.1605, 53.388], [-6.1608, 53.3878], [-6.161, 53.3877], [-6.1612, 53.3875], [-6.1615, 53.3873], [-6.1618, 53.3871], [-6.1621, 53.3869], [-6.1623, 53.3868]], [[-6.1567, 53.3908], [-6.1565, 53.391], [-6.1562, 53.3913], [-6.156, 53.3914], [-6.1557, 53.3916], [-6.1557, 53.3917], [-6.1556, 53.3917], [-6.1555, 53.3917], [-6.1553, 53.3919], [-6.155, 53.3922], [-6.1546, 53.3925], [-6.1545, 53.3924], [-6.1547, 53.3923], [-6.1551, 53.392], [-6.1555, 53.3917], [-6.1556, 53.3916], [-6.1559, 53.3914], [-6.1562, 53.3912], [-6.1566, 53.3909], [-6.1567, 53.3908]], [[-6.1493, 53.4019], [-6.1492, 53.4019], [-6.1491, 53.4023], [-6.149, 53.4026], [-6.1489, 53.4029], [-6.1489, 53.4033], [-6.1488, 53.4036], [-6.149, 53.4036], [-6.149, 53.4033], [-6.1491, 53.4029], [-6.1492, 53.4026], [-6.1492, 53.4024], [-6.1493, 53.4021], [-6.1493, 53.4019]], [[-6.1515, 53.4183], [-6.1514, 53.4178], [-6.1513, 53.4172], [-6.1513, 53.4171], [-6.1512, 53.4166]], [[-6.1567, 53.4503], [-6.1567, 53.4506], [-6.1565, 53.452]], [[-6.0605, 53.1437], [-6.0607, 53.1439], [-6.0608, 53.1441], [-6.0609, 53.1441], [-6.0611, 53.1444], [-6.0613, 53.1446], [-6.0615, 53.1448], [-6.0618, 53.145], [-6.0621, 53.1453]], [[-6.0621, 53.1453], [-6.0624, 53.1455], [-6.0626, 53.1457], [-6.0628, 53.1459]], [[-6.0974, 53.1994], [-6.0977, 53.1999]], [[-6.0979, 53.2001], [-6.0977, 53.1999]], [[-6.098, 53.2003], [-6.0979, 53.2001]], [[-6.0991, 53.2019], [-6.0988, 53.2015], [-6.0986, 53.2012], [-6.0983, 53.2007], [-6.098, 53.2003]], [[-6.0992, 53.202], [-6.0991, 53.2019]], [[-6.0993, 53.2024], [-6.0992, 53.202]], [[-6.0997, 53.203], [-6.0998, 53.2031], [-6.1001, 53.2035], [-6.1005, 53.2041], [-6.1007, 53.2045], [-6.101, 53.2051], [-6.1011, 53.2052], [-6.1012, 53.2053]], [[-6.1012, 53.2053], [-6.1014, 53.2056], [-6.1017, 53.206], [-6.1018, 53.2062], [-6.1019, 53.2064], [-6.1021, 53.2066], [-6.1022, 53.2068], [-6.1024, 53.207]], [[-6.1024, 53.207], [-6.1024, 53.2071]], [[-6.1024, 53.2071], [-6.1026, 53.2074], [-6.1028, 53.2077], [-6.1031, 53.2084]], [[-6.1033, 53.2089], [-6.1037, 53.2098]], [[-6.1037, 53.2098], [-6.1037, 53.2099]], [[-6.1037, 53.2099], [-6.104, 53.2104], [-6.104, 53.2105]], [[-6.104, 53.2105], [-6.1043, 53.211], [-6.1048, 53.2116], [-6.1051, 53.212], [-6.1054, 53.2123], [-6.1064, 53.2133], [-6.1071, 53.214], [-6.1076, 53.2146], [-6.108, 53.2153], [-6.1082, 53.2154], [-6.1083, 53.2158], [-6.1086, 53.2163], [-6.1091, 53.2175], [-6.1096, 53.2187], [-6.1104, 53.2208], [-6.111, 53.222], [-6.1117, 53.2238], [-6.1127, 53.226], [-6.1128, 53.2262], [-6.1136, 53.2282], [-6.1143, 53.23], [-6.1147, 53.231], [-6.1151, 53.2319]], [[-6.1152, 53.2321], [-6.1154, 53.2324], [-6.1157, 53.2333], [-6.1167, 53.2357], [-6.1169, 53.2361], [-6.1171, 53.2367], [-6.1172, 53.2371], [-6.1172, 53.2375], [-6.1173, 53.2378], [-6.1173, 53.2382], [-6.1173, 53.2391], [-6.1173, 53.2397], [-6.1173, 53.2405], [-6.1173, 53.2419], [-6.1173, 53.2424], [-6.1173, 53.2429], [-6.1172, 53.2434], [-6.117, 53.244], [-6.1169, 53.2443]], [[-6.1169, 53.2443], [-6.1169, 53.2444]], [[-6.1169, 53.2444], [-6.1167, 53.2448], [-6.1166, 53.245], [-6.1164, 53.2454], [-6.1161, 53.2457]], [[-6.116, 53.2458], [-6.1158, 53.2462], [-6.1153, 53.2467], [-6.1149, 53.2473], [-6.1145, 53.2478], [-6.1144, 53.248], [-6.1141, 53.2485], [-6.114, 53.2489], [-6.1138, 53.2493], [-6.1137, 53.2497], [-6.1137, 53.2501], [-6.1136, 53.2504], [-6.1135, 53.2515]], [[-6.1135, 53.2516], [-6.1134, 53.2532], [-6.1133, 53.2537], [-6.1132, 53.2546], [-6.1131, 53.2554], [-6.113, 53.2558], [-6.113, 53.2563]], [[-6.113, 53.2563], [-6.113, 53.2568], [-6.113, 53.2572], [-6.1129, 53.2575]], [[-6.1129, 53.2576], [-6.1128, 53.258], [-6.1127, 53.2586], [-6.1126, 53.2589], [-6.1125, 53.2591], [-6.1124, 53.2594], [-6.1123, 53.2598], [-6.1122, 53.2599], [-6.1122, 53.26], [-6.1121, 53.2601], [-6.1118, 53.2606], [-6.1113, 53.2611], [-6.111, 53.2615], [-6.1107, 53.2618], [-6.1103, 53.2621], [-6.1099, 53.2625], [-6.1096, 53.2628], [-6.1092, 53.2633], [-6.1088, 53.2637]], [[-6.1087, 53.2639], [-6.1084, 53.2644], [-6.1079, 53.2651], [-6.1077, 53.2654], [-6.1076, 53.2656], [-6.1073, 53.2658]], [[-6.1073, 53.2658], [-6.1071, 53.266]], [[-6.1071, 53.266], [-6.107, 53.2661], [-6.1069, 53.2662], [-6.1066, 53.2663], [-6.1064, 53.2664], [-6.1062, 53.2665], [-6.106, 53.2667], [-6.1056, 53.2668], [-6.105, 53.2671], [-6.1045, 53.2672], [-6.1039, 53.2675], [-6.1035, 53.2676], [-6.1031, 53.2678], [-6.1028, 53.2679], [-6.1021, 53.2681], [-6.1013, 53.2684], [-6.1007, 53.2686], [-6.1002, 53.2687], [-6.0994, 53.269]], [[-6.0994, 53.269], [-6.0988, 53.2693], [-6.0983, 53.2695], [-6.098, 53.2696], [-6.0978, 53.2697], [-6.0976, 53.2699], [-6.0975, 53.2699], [-6.0972, 53.2701], [-6.0971, 53.2702], [-6.097, 53.2703], [-6.0969, 53.2704], [-6.0968, 53.2706]], [[-6.0965, 53.2718], [-6.0966, 53.2721], [-6.0967, 53.2723], [-6.0968, 53.2725], [-6.0969, 53.2727], [-6.097, 53.2729], [-6.0972, 53.273], [-6.0973, 53.2731], [-6.0976, 53.2734], [-6.0979, 53.2736], [-6.0981, 53.2738], [-6.0985, 53.274], [-6.0988, 53.2742], [-6.099, 53.2743], [-6.0994, 53.2745], [-6.0997, 53.2746], [-6.0999, 53.2747], [-6.1002, 53.2748], [-6.1006, 53.275], [-6.1011, 53.2751]], [[-6.1011, 53.2751], [-6.1018, 53.2753], [-6.1032, 53.2756], [-6.1046, 53.2759], [-6.1058, 53.2762], [-6.1061, 53.2763], [-6.1095, 53.2772], [-6.1108, 53.2775], [-6.1111, 53.2776]], [[-6.1114, 53.2777], [-6.1125, 53.278], [-6.1147, 53.2787], [-6.1164, 53.2792], [-6.1196, 53.2801], [-6.1214, 53.2807], [-6.1231, 53.2812], [-6.1242, 53.2816], [-6.1247, 53.2817], [-6.1252, 53.2819], [-6.1255, 53.282], [-6.1259, 53.2822], [-6.1262, 53.2825], [-6.1265, 53.2827], [-6.1269, 53.283], [-6.1271, 53.2833], [-6.1274, 53.2836], [-6.1275, 53.2839], [-6.1276, 53.2843], [-6.1277, 53.2847], [-6.1277, 53.285], [-6.1277, 53.2854]], [[-6.1277, 53.2854], [-6.1277, 53.2858], [-6.1277, 53.2863], [-6.1277, 53.2867], [-6.1276, 53.2869], [-6.1276, 53.2871], [-6.1275, 53.2873], [-6.1274, 53.2875], [-6.1271, 53.2882]], [[-6.127, 53.2884], [-6.1269, 53.2885], [-6.1269, 53.2887], [-6.1269, 53.289], [-6.1269, 53.2891], [-6.1269, 53.2893], [-6.127, 53.2894], [-6.127, 53.2895], [-6.1271, 53.2896], [-6.1271, 53.2898], [-6.1272, 53.2899], [-6.1273, 53.29], [-6.1274, 53.2901], [-6.1277, 53.2904], [-6.1278, 53.2905]], [[-6.1288, 53.2914], [-6.1292, 53.2917], [-6.1295, 53.292], [-6.1297, 53.2922], [-6.1301, 53.2924], [-6.1309, 53.293]], [[-6.1347, 53.2949], [-6.1351, 53.2951], [-6.1355, 53.2953], [-6.1359, 53.2954], [-6.1364, 53.2956], [-6.1368, 53.2957], [-6.1371, 53.2958], [-6.1374, 53.2959], [-6.1378, 53.296], [-6.1381, 53.296], [-6.1384, 53.2961], [-6.1389, 53.2962], [-6.1394, 53.2962], [-6.1397, 53.2963], [-6.1398, 53.2963], [-6.1399, 53.2963], [-6.1401, 53.2963], [-6.1405, 53.2963], [-6.1409, 53.2963], [-6.1415, 53.2963], [-6.1419, 53.2963], [-6.1424, 53.2962], [-6.1426, 53.2962]], [[-6.1426, 53.2962], [-6.1429, 53.2962], [-6.1437, 53.2961], [-6.1466, 53.2958], [-6.1491, 53.2955], [-6.1502, 53.2954], [-6.1506, 53.2954], [-6.1511, 53.2954], [-6.1515, 53.2954], [-6.1519, 53.2954], [-6.1522, 53.2954], [-6.1526, 53.2954], [-6.1529, 53.2954], [-6.1534, 53.2955], [-6.1537, 53.2955], [-6.154, 53.2955], [-6.1544, 53.2956], [-6.1548, 53.2956], [-6.155, 53.2957], [-6.1554, 53.2958], [-6.1558, 53.2958], [-6.1561, 53.2959], [-6.1563, 53.296], [-6.1571, 53.2962], [-6.1574, 53.2963], [-6.1579, 53.2965], [-6.1594, 53.2971], [-6.1596, 53.2971], [-6.1601, 53.2973], [-6.1607, 53.2975], [-6.1614, 53.2978], [-6.1618, 53.298], [-6.163, 53.2984], [-6.1635, 53.2986], [-6.164, 53.2988], [-6.1649, 53.299], [-6.1652, 53.2992], [-6.1661, 53.2994], [-6.1664, 53.2995], [-6.167, 53.2997], [-6.1677, 53.2999], [-6.1684, 53.3001], [-6.1688, 53.3002], [-6.1695, 53.3003], [-6.171, 53.3007]], [[-6.1713, 53.3007], [-6.172, 53.3009], [-6.1742, 53.3014], [-6.1749, 53.3016], [-6.1757, 53.3018], [-6.1761, 53.302], [-6.1774, 53.3024], [-6.1781, 53.3026]], [[-6.1781, 53.3026], [-6.1787, 53.3028], [-6.1795, 53.3031], [-6.1801, 53.3034], [-6.1805, 53.3035], [-6.1823, 53.3042], [-6.184, 53.3049], [-6.1857, 53.3056], [-6.1898, 53.3073], [-6.1904, 53.3075], [-6.191, 53.3078], [-6.1917, 53.3081], [-6.1921, 53.3083], [-6.1924, 53.3085], [-6.1928, 53.3086], [-6.1932, 53.3088], [-6.1937, 53.3091], [-6.1946, 53.3096], [-6.1952, 53.31], [-6.1955, 53.3102], [-6.1961, 53.3105], [-6.1969, 53.311], [-6.1981, 53.3118], [-6.1994, 53.3127], [-6.2003, 53.3133], [-6.2022, 53.3146], [-6.2026, 53.3148], [-6.2028, 53.315], [-6.2033, 53.3153], [-6.2047, 53.3162], [-6.2049, 53.3163]], [[-6.2049, 53.3163], [-6.205, 53.3164], [-6.2067, 53.3175], [-6.2088, 53.3189], [-6.2098, 53.3196], [-6.2107, 53.3202], [-6.2116, 53.3208], [-6.2118, 53.3209], [-6.2123, 53.3213], [-6.213, 53.3218], [-6.214, 53.3225], [-6.2152, 53.3235], [-6.2166, 53.3245], [-6.2181, 53.3256], [-6.2189, 53.3262], [-6.2209, 53.3278]], [[-6.2209, 53.3278], [-6.221, 53.3279], [-6.2245, 53.3306], [-6.2263, 53.3319], [-6.2273, 53.3327], [-6.2278, 53.3331]], [[-6.228, 53.3332], [-6.229, 53.3339], [-6.229, 53.334], [-6.2291, 53.3341], [-6.2293, 53.3342]], [[-6.2293, 53.3342], [-6.2304, 53.3351]], [[-6.2308, 53.3354], [-6.2315, 53.3359], [-6.2332, 53.3371]], [[-6.2332, 53.3371], [-6.2334, 53.3373]], [[-6.2334, 53.3373], [-6.2338, 53.3375]], [[-6.2338, 53.3375], [-6.2339, 53.3376]], [[-6.2339, 53.3376], [-6.2345, 53.3379]], [[-6.2345, 53.3379], [-6.2349, 53.3382], [-6.2355, 53.3385], [-6.236, 53.3388], [-6.2365, 53.339], [-6.2366, 53.339]], [[-6.2366, 53.339], [-6.2367, 53.3391]], [[-6.2367, 53.3391], [-6.2372, 53.3393], [-6.2376, 53.3394], [-6.238, 53.3396], [-6.239, 53.3401]], [[-6.239, 53.3401], [-6.2391, 53.3401], [-6.2393, 53.3402], [-6.2394, 53.3403]], [[-6.2394, 53.3403], [-6.2398, 53.3405], [-6.24, 53.3405], [-6.2401, 53.3406], [-6.2402, 53.3407], [-6.2407, 53.3409], [-6.2411, 53.3411]], [[-6.2411, 53.3411], [-6.2414, 53.3412]], [[-6.2414, 53.3412], [-6.2415, 53.3413]], [[-6.2415, 53.3413], [-6.2423, 53.3416], [-6.2436, 53.342], [-6.244, 53.3421]], [[-6.244, 53.3421], [-6.2441, 53.3422]], [[-6.2441, 53.3422], [-6.2445, 53.3423], [-6.2448, 53.3424]], [[-6.2448, 53.3424], [-6.245, 53.3425]], [[-6.245, 53.3425], [-6.2455, 53.3426], [-6.246, 53.3428], [-6.2462, 53.3428]], [[-6.2462, 53.3428], [-6.2464, 53.3429]], [[-6.2464, 53.3429], [-6.2467, 53.3429]], [[-6.2467, 53.3429], [-6.2472, 53.343], [-6.2483, 53.3433]], [[-6.2483, 53.3433], [-6.2485, 53.3433]], [[-6.2485, 53.3433], [-6.2494, 53.3435]], [[-6.2494, 53.3435], [-6.2497, 53.3436], [-6.2498, 53.3437]], [[-6.2498, 53.3437], [-6.25, 53.3437], [-6.2502, 53.3438], [-6.2503, 53.3438], [-6.2505, 53.3439], [-6.2507, 53.344], [-6.2508, 53.344], [-6.2509, 53.3441], [-6.2511, 53.3442], [-6.2512, 53.3443], [-6.2513, 53.3444], [-6.2514, 53.3444]], [[-6.2514, 53.3444], [-6.2515, 53.3446], [-6.2517, 53.3447]], [[-6.2517, 53.3447], [-6.252, 53.345], [-6.2521, 53.3451]], [[-6.2521, 53.3451], [-6.2524, 53.3453]], [[-6.2524, 53.3453], [-6.2526, 53.3455], [-6.2529, 53.3458]], [[-6.2529, 53.3458], [-6.2531, 53.346]], [[-6.2531, 53.346], [-6.2536, 53.3463], [-6.2539, 53.3466]], [[-6.2539, 53.3466], [-6.2541, 53.3468]], [[-6.2541, 53.3468], [-6.2543, 53.347], [-6.2543, 53.3471], [-6.2545, 53.3474]], [[-6.2545, 53.3474], [-6.2545, 53.3475], [-6.2546, 53.3476], [-6.2546, 53.3477]], [[-6.2546, 53.3477], [-6.2546, 53.3478], [-6.2547, 53.348], [-6.2547, 53.3482]], [[-6.2547, 53.3482], [-6.2547, 53.3484]], [[-6.2547, 53.3484], [-6.2547, 53.3486], [-6.2546, 53.3486], [-6.2546, 53.3487], [-6.2545, 53.3489], [-6.2545, 53.3491]], [[-6.2545, 53.3491], [-6.2544, 53.3492], [-6.2542, 53.3494]], [[-6.2542, 53.3494], [-6.2542, 53.3495], [-6.2539, 53.3498]], [[-6.2539, 53.3498], [-6.2537, 53.35]], [[-6.2537, 53.35], [-6.2535, 53.3501]], [[-6.2535, 53.3501], [-6.2535, 53.3502], [-6.2533, 53.3502]], [[-6.2529, 53.3505], [-6.2527, 53.3506]], [[-6.2527, 53.3506], [-6.2522, 53.3509], [-6.2517, 53.3511]], [[-6.2517, 53.3511], [-6.2515, 53.3512], [-6.2511, 53.3514]], [[-6.2511, 53.3514], [-6.2509, 53.3515]], [[-6.2509, 53.3515], [-6.2504, 53.3518], [-6.2501, 53.3519], [-6.25, 53.352]], [[-6.25, 53.352], [-6.2498, 53.3521], [-6.2495, 53.3522], [-6.2491, 53.3523]], [[-6.2491, 53.3523], [-6.249, 53.3524]], [[-6.249, 53.3524], [-6.2489, 53.3524], [-6.2488, 53.3525], [-6.2486, 53.3525], [-6.2484, 53.3526], [-6.2481, 53.3527], [-6.2479, 53.3528], [-6.2477, 53.3528], [-6.2475, 53.3529], [-6.2472, 53.3531], [-6.247, 53.3531], [-6.2468, 53.3532], [-6.2466, 53.3533], [-6.2464, 53.3533], [-6.2461, 53.3535], [-6.2458, 53.3536]], [[-6.2458, 53.3536], [-6.2455, 53.3537]], [[-6.2455, 53.3537], [-6.2453, 53.3538]], [[-6.2453, 53.3538], [-6.2452, 53.3538], [-6.2451, 53.3539], [-6.2448, 53.354], [-6.2447, 53.3541], [-6.2446, 53.3542], [-6.2445, 53.3542]], [[-6.2445, 53.3542], [-6.2442, 53.3544], [-6.2431, 53.355]], [[-6.2431, 53.355], [-6.2429, 53.355]], [[-6.2429, 53.355], [-6.2425, 53.3553]], [[-6.2425, 53.3553], [-6.2422, 53.3554], [-6.2421, 53.3555]], [[-6.2421, 53.3555], [-6.2419, 53.3556], [-6.2417, 53.3557], [-6.2414, 53.3558], [-6.2407, 53.3561], [-6.2405, 53.3562], [-6.2404, 53.3562], [-6.2402, 53.3563]], [[-6.2401, 53.3563], [-6.2402, 53.3563]], [[-6.24, 53.3564], [-6.2399, 53.3564], [-6.2384, 53.3572], [-6.2377, 53.3576], [-6.2367, 53.3581]], [[-6.2367, 53.3581], [-6.2364, 53.3582]], [[-6.2364, 53.3582], [-6.2357, 53.3586]], [[-6.2351, 53.3589], [-6.235, 53.359], [-6.2342, 53.3594]], [[-6.2342, 53.3594], [-6.2315, 53.3608], [-6.2311, 53.361], [-6.2309, 53.3611], [-6.2289, 53.3622], [-6.2276, 53.3628], [-6.2268, 53.3633], [-6.2266, 53.3633], [-6.2258, 53.3637]], [[-6.2258, 53.3637], [-6.2257, 53.3638]], [[-6.2257, 53.3638], [-6.2255, 53.3639]], [[-6.2255, 53.3639], [-6.2252, 53.364]], [[-6.2252, 53.364], [-6.224, 53.3647], [-6.2237, 53.3648], [-6.2226, 53.3654], [-6.2219, 53.3658], [-6.22, 53.3667]], [[-6.22, 53.3667], [-6.2197, 53.3669]], [[-6.2197, 53.3669], [-6.2181, 53.3678], [-6.215, 53.3693], [-6.2145, 53.3696], [-6.2142, 53.3697], [-6.214, 53.3698], [-6.2138, 53.3699], [-6.2132, 53.3702], [-6.213, 53.3702], [-6.2126, 53.3704], [-6.2123, 53.3705], [-6.212, 53.3706], [-6.2117, 53.3707], [-6.2114, 53.3708], [-6.2111, 53.3709], [-6.2105, 53.3711], [-6.2102, 53.3712], [-6.2085, 53.3717], [-6.2079, 53.3719], [-6.2063, 53.3724], [-6.205, 53.3728], [-6.2043, 53.373], [-6.2025, 53.3737], [-6.2, 53.3749], [-6.1977, 53.376], [-6.1958, 53.3769]], [[-6.1958, 53.3769], [-6.1955, 53.377], [-6.1947, 53.3774], [-6.1939, 53.3778], [-6.1932, 53.3781], [-6.1926, 53.3783], [-6.192, 53.3785], [-6.1915, 53.3787], [-6.191, 53.3788], [-6.1905, 53.379], [-6.1899, 53.3792], [-6.1891, 53.3793], [-6.1884, 53.3795]], [[-6.1884, 53.3795], [-6.1874, 53.3797], [-6.1864, 53.3799], [-6.1857, 53.38], [-6.1851, 53.3801], [-6.1822, 53.3806], [-6.1817, 53.3807]], [[-6.1817, 53.3807], [-6.1806, 53.3809], [-6.179, 53.3811]], [[-6.1789, 53.3812], [-6.179, 53.3811]], [[-6.1788, 53.3812], [-6.1789, 53.3812]], [[-6.1788, 53.3812], [-6.1785, 53.3812]], [[-6.1785, 53.3812], [-6.1762, 53.3816], [-6.1754, 53.3817], [-6.1751, 53.3818], [-6.1747, 53.3819], [-6.1739, 53.3821], [-6.1732, 53.3822], [-6.1724, 53.3824], [-6.1715, 53.3827], [-6.1706, 53.3829], [-6.169, 53.3835]], [[-6.169, 53.3835], [-6.1683, 53.3837], [-6.1673, 53.3841]], [[-6.1673, 53.3841], [-6.1671, 53.3842]], [[-6.1671, 53.3842], [-6.166, 53.3847], [-6.1659, 53.3848]], [[-6.1659, 53.3848], [-6.1641, 53.3857], [-6.1632, 53.3862], [-6.1623, 53.3867], [-6.1619, 53.387], [-6.1615, 53.3873], [-6.1609, 53.3877], [-6.1607, 53.3879]], [[-6.1607, 53.3879], [-6.158, 53.3898], [-6.1575, 53.3902]], [[-6.1575, 53.3902], [-6.1574, 53.3903]], [[-6.1574, 53.3903], [-6.1573, 53.3904]], [[-6.1573, 53.3904], [-6.1569, 53.3907]], [[-6.1569, 53.3907], [-6.1564, 53.391], [-6.156, 53.3913], [-6.1557, 53.3916]], [[-6.1557, 53.3916], [-6.1555, 53.3917], [-6.1549, 53.3921], [-6.1544, 53.3925]], [[-6.1544, 53.3925], [-6.1541, 53.3928], [-6.1538, 53.393], [-6.1536, 53.3932], [-6.1533, 53.3935], [-6.1527, 53.3941], [-6.1524, 53.3945], [-6.152, 53.3949], [-6.1518, 53.3953]], [[-6.1518, 53.3953], [-6.1516, 53.3954], [-6.1514, 53.3958], [-6.1512, 53.396], [-6.1509, 53.3966], [-6.1508, 53.3968], [-6.1506, 53.3972], [-6.1505, 53.3975], [-6.1504, 53.3978], [-6.1503, 53.398]], [[-6.1503, 53.398], [-6.1503, 53.3981], [-6.1502, 53.3983], [-6.1501, 53.3987], [-6.1497, 53.3998], [-6.1497, 53.4]], [[-6.1497, 53.4], [-6.1496, 53.4002], [-6.1495, 53.4006], [-6.1494, 53.4012], [-6.1492, 53.4019], [-6.1491, 53.4023], [-6.149, 53.4025], [-6.1489, 53.403], [-6.1489, 53.4032], [-6.1488, 53.4033], [-6.1488, 53.4036], [-6.1488, 53.4038], [-6.1488, 53.4042], [-6.1488, 53.4046], [-6.1488, 53.4052], [-6.1488, 53.4054], [-6.1488, 53.4056], [-6.1488, 53.4057]], [[-6.1488, 53.4057], [-6.1489, 53.406], [-6.1489, 53.4063], [-6.149, 53.4068]], [[-6.149, 53.4069], [-6.1492, 53.4078], [-6.1496, 53.4096]], [[-6.1496, 53.4096], [-6.1497, 53.4098]], [[-6.1497, 53.4098], [-6.1508, 53.415], [-6.1509, 53.4158], [-6.1513, 53.4177], [-6.1515, 53.4183]], [[-6.1515, 53.4183], [-6.1516, 53.4187], [-6.1519, 53.42], [-6.1519, 53.4203]], [[-6.1519, 53.4203], [-6.152, 53.4205]], [[-6.152, 53.4205], [-6.1522, 53.4215], [-6.1529, 53.4248]], [[-6.1529, 53.4248], [-6.1529, 53.425]], [[-6.1529, 53.425], [-6.1534, 53.4275], [-6.1536, 53.4282]], [[-6.1536, 53.4282], [-6.1536, 53.4284]], [[-6.1536, 53.4284], [-6.1541, 53.4307]], [[-6.1541, 53.4307], [-6.1542, 53.4308]], [[-6.1542, 53.4308], [-6.1548, 53.4338]], [[-6.1548, 53.4338], [-6.1554, 53.4368], [-6.1561, 53.4401], [-6.1567, 53.4427]], [[-6.1567, 53.4427], [-6.1567, 53.4428], [-6.1568, 53.4432]], [[-6.1568, 53.4432], [-6.157, 53.4441], [-6.1571, 53.4446]], [[-6.1571, 53.4446], [-6.1571, 53.4448], [-6.1572, 53.4452], [-6.1572, 53.4455], [-6.1572, 53.4458], [-6.1572, 53.4462], [-6.1572, 53.4465], [-6.1572, 53.4468], [-6.1572, 53.447]], [[-6.1572, 53.447], [-6.1571, 53.4474], [-6.157, 53.4484], [-6.1569, 53.4486], [-6.1569, 53.4491], [-6.1568, 53.4492]], [[-6.1568, 53.4492], [-6.1568, 53.4494], [-6.1567, 53.4502]], [[-6.1567, 53.4502], [-6.1567, 53.4503], [-6.1566, 53.4507]], [[-6.1556, 53.3914], [-6.1562, 53.3911], [-6.1559, 53.3912], [-6.1557, 53.3913], [-6.1555, 53.3914], [-6.1554, 53.3914], [-6.1553, 53.3915], [-6.155, 53.3915], [-6.1548, 53.3916], [-6.1546, 53.3917], [-6.1543, 53.3918], [-6.1541, 53.3918], [-6.1539, 53.3919], [-6.1537, 53.3919], [-6.1539, 53.3919], [-6.1542, 53.3918], [-6.1544, 53.3918], [-6.1546, 53.3917], [-6.1548, 53.3917], [-6.1549, 53.3916], [-6.1551, 53.3916], [-6.1553, 53.3915], [-6.1554, 53.3916], [-6.1556, 53.3914]], [[-6.1378, 53.3916], [-6.137, 53.3915], [-6.1369, 53.3915], [-6.136, 53.3915], [-6.1349, 53.3915], [-6.1348, 53.3915], [-6.1357, 53.3915], [-6.1366, 53.3916], [-6.1369, 53.3916], [-6.1373, 53.3916], [-6.1378, 53.3916]], [[-6.1172, 53.3921], [-6.1171, 53.392], [-6.1166, 53.392], [-6.1164, 53.392], [-6.1161, 53.392], [-6.1158, 53.392], [-6.1154, 53.392], [-6.1149, 53.392], [-6.1143, 53.392], [-6.1149, 53.392], [-6.1156, 53.3921], [-6.1162, 53.3921], [-6.1168, 53.3921], [-6.1171, 53.3921], [-6.1172, 53.3921]], [[-6.076, 53.3894], [-6.0754, 53.3893], [-6.0753, 53.3893], [-6.0731, 53.389], [-6.0731, 53.3889], [-6.0732, 53.3889], [-6.0732, 53.389], [-6.0741, 53.3891], [-6.076, 53.3894], [-6.0762, 53.3894], [-6.076, 53.3894]], [[-6.1573, 53.3904], [-6.157, 53.3906]], [[-6.157, 53.3906], [-6.1567, 53.3908], [-6.1565, 53.3909], [-6.1563, 53.391], [-6.1561, 53.3911], [-6.1559, 53.3912], [-6.1557, 53.3913], [-6.1552, 53.3915], [-6.1547, 53.3916], [-6.1544, 53.3917], [-6.1542, 53.3918], [-6.154, 53.3918], [-6.1537, 53.3919], [-6.1534, 53.392], [-6.1531, 53.392], [-6.1526, 53.3921], [-6.1522, 53.3921], [-6.1518, 53.3921], [-6.1513, 53.3921], [-6.151, 53.3921], [-6.1507, 53.3921], [-6.1504, 53.3921], [-6.1497, 53.3921]], [[-6.1497, 53.3921], [-6.1465, 53.392], [-6.1456, 53.3919], [-6.1448, 53.3919], [-6.1439, 53.3919], [-6.1432, 53.3918], [-6.142, 53.3918], [-6.1403, 53.3917], [-6.1383, 53.3916], [-6.1373, 53.3916], [-6.1369, 53.3916], [-6.1357, 53.3915], [-6.1351, 53.3915], [-6.1344, 53.3915], [-6.134, 53.3915], [-6.1336, 53.3915], [-6.1331, 53.3915], [-6.1326, 53.3915], [-6.1317, 53.3915], [-6.1284, 53.3916], [-6.1269, 53.3917]], [[-6.1269, 53.3917], [-6.126, 53.3917], [-6.1249, 53.3918], [-6.1247, 53.3918], [-6.1242, 53.3918], [-6.1237, 53.3918], [-6.1222, 53.3919], [-6.1212, 53.3919], [-6.1204, 53.3919], [-6.1195, 53.392], [-6.1188, 53.392], [-6.118, 53.392], [-6.1173, 53.392]], [[-6.1173, 53.392], [-6.1172, 53.392], [-6.1169, 53.392], [-6.1166, 53.392], [-6.1161, 53.392], [-6.1155, 53.392], [-6.1147, 53.392], [-6.1141, 53.392], [-6.1135, 53.392], [-6.1127, 53.3919], [-6.112, 53.3919], [-6.111, 53.3919], [-6.1084, 53.3918], [-6.1068, 53.3918], [-6.1059, 53.3917], [-6.105, 53.3917], [-6.1044, 53.3917], [-6.1039, 53.3917], [-6.102, 53.3916], [-6.1012, 53.3916], [-6.1004, 53.3916], [-6.0995, 53.3915], [-6.0978, 53.3915], [-6.0971, 53.3915], [-6.0956, 53.3914]], [[-6.0956, 53.3914], [-6.0953, 53.3914]], [[-6.0953, 53.3914], [-6.0936, 53.3913], [-6.0925, 53.3913], [-6.0919, 53.3913], [-6.0912, 53.3912], [-6.0899, 53.3911], [-6.0886, 53.391], [-6.0875, 53.3909], [-6.0867, 53.3909]], [[-6.0867, 53.3909], [-6.0866, 53.3909]], [[-6.0866, 53.3909], [-6.0862, 53.3909], [-6.0854, 53.3908], [-6.0849, 53.3907], [-6.0845, 53.3907], [-6.0844, 53.3907]], [[-6.0844, 53.3907], [-6.0841, 53.3906], [-6.0834, 53.3905], [-6.0822, 53.3904], [-6.0815, 53.3903], [-6.0809, 53.3902], [-6.0801, 53.39]], [[-6.0801, 53.39], [-6.0792, 53.3899], [-6.0788, 53.3898], [-6.078, 53.3897], [-6.077, 53.3895], [-6.0754, 53.3893], [-6.0749, 53.3892], [-6.0744, 53.3891], [-6.0734, 53.389], [-6.0732, 53.389]], [[-6.0739, 53.389], [-6.0739, 53.3889], [-6.0742, 53.389], [-6.0745, 53.389], [-6.0747, 53.3891], [-6.0753, 53.3892], [-6.0756, 53.3892], [-6.0761, 53.3893], [-6.0754, 53.3892], [-6.0747, 53.3891], [-6.0742, 53.389], [-6.0739, 53.389], [-6.0732, 53.3889], [-6.0731, 53.3889], [-6.0732, 53.3889], [-6.0735, 53.3889], [-6.0737, 53.3889], [-6.0739, 53.389]], [[-6.1169, 53.392], [-6.1169, 53.3919], [-6.1166, 53.3919], [-6.1165, 53.3919], [-6.1164, 53.3919], [-6.1163, 53.3919], [-6.1162, 53.3919], [-6.116, 53.3919], [-6.1158, 53.3919], [-6.1154, 53.3919], [-6.1147, 53.3919], [-6.1142, 53.3919], [-6.1141, 53.3919], [-6.1147, 53.3919], [-6.1154, 53.392], [-6.1158, 53.392], [-6.116, 53.392], [-6.1162, 53.392], [-6.1166, 53.392], [-6.1169, 53.392]], [[-6.1378, 53.3916], [-6.1373, 53.3915], [-6.1369, 53.3915], [-6.1366, 53.3915], [-6.1363, 53.3915], [-6.136, 53.3915], [-6.1354, 53.3915], [-6.1349, 53.3915], [-6.136, 53.3915], [-6.1369, 53.3915], [-6.137, 53.3915], [-6.1378, 53.3916]], [[-6.1562, 53.391], [-6.1561, 53.3911], [-6.1559, 53.3911], [-6.1557, 53.3912], [-6.1554, 53.3913], [-6.1552, 53.3914], [-6.1549, 53.3915], [-6.1547, 53.3916], [-6.1545, 53.3917], [-6.1542, 53.3917], [-6.154, 53.3918], [-6.1538, 53.3918], [-6.154, 53.3917], [-6.1542, 53.3917], [-6.1544, 53.3916], [-6.1546, 53.3916], [-6.1548, 53.3915], [-6.1549, 53.3915], [-6.1551, 53.3914], [-6.1552, 53.3914], [-6.1554, 53.3913], [-6.1557, 53.3912], [-6.156, 53.391], [-6.1562, 53.391]], [[-6.0733, 53.3889], [-6.0734, 53.3889], [-6.0744, 53.3891], [-6.0761, 53.3893], [-6.0772, 53.3895], [-6.0782, 53.3897], [-6.0792, 53.3898], [-6.08, 53.39], [-6.0809, 53.3901], [-6.0818, 53.3903], [-6.0828, 53.3904], [-6.0836, 53.3905], [-6.0841, 53.3906], [-6.0845, 53.3907], [-6.0846, 53.3907], [-6.085, 53.3907], [-6.0855, 53.3908], [-6.0859, 53.3908], [-6.0871, 53.3909], [-6.0883, 53.391], [-6.0897, 53.3911], [-6.0905, 53.3911], [-6.0911, 53.3912], [-6.0918, 53.3912], [-6.0923, 53.3913], [-6.0929, 53.3913], [-6.0938, 53.3913], [-6.0946, 53.3913], [-6.0953, 53.3914]], [[-6.0956, 53.3914], [-6.0968, 53.3914], [-6.0982, 53.3915], [-6.0995, 53.3915], [-6.1002, 53.3915], [-6.1015, 53.3916], [-6.1027, 53.3916], [-6.1042, 53.3916], [-6.1054, 53.3917], [-6.1067, 53.3917], [-6.108, 53.3918], [-6.1093, 53.3918], [-6.1105, 53.3918], [-6.1115, 53.3919], [-6.1121, 53.3919], [-6.1123, 53.3919], [-6.1135, 53.3919], [-6.1147, 53.392], [-6.1152, 53.392], [-6.1156, 53.392], [-6.1161, 53.392], [-6.1164, 53.392], [-6.1168, 53.392], [-6.1171, 53.392], [-6.1172, 53.392], [-6.1178, 53.392], [-6.1192, 53.3919], [-6.1206, 53.3919], [-6.122, 53.3918], [-6.1232, 53.3918], [-6.1242, 53.3918], [-6.1247, 53.3917], [-6.1255, 53.3917], [-6.1264, 53.3917], [-6.1275, 53.3916], [-6.1284, 53.3916], [-6.1295, 53.3916], [-6.1305, 53.3915], [-6.1317, 53.3915], [-6.1326, 53.3915], [-6.1331, 53.3914], [-6.1336, 53.3914], [-6.1344, 53.3915]], [[-6.1344, 53.3915], [-6.1349, 53.3915], [-6.1354, 53.3915], [-6.136, 53.3915], [-6.1369, 53.3915], [-6.1371, 53.3915], [-6.1377, 53.3915], [-6.1383, 53.3916], [-6.1403, 53.3917], [-6.1408, 53.3917], [-6.1415, 53.3917], [-6.1426, 53.3918]], [[-6.1426, 53.3918], [-6.1434, 53.3918], [-6.1446, 53.3919], [-6.1454, 53.3919], [-6.1462, 53.3919], [-6.1472, 53.392], [-6.1477, 53.392], [-6.1483, 53.392], [-6.149, 53.3921], [-6.1496, 53.3921], [-6.1497, 53.3921]], [[-6.1497, 53.3921], [-6.1501, 53.3921], [-6.1508, 53.3921], [-6.1511, 53.3921], [-6.1514, 53.3921], [-6.1518, 53.3921], [-6.1521, 53.3921], [-6.1524, 53.3921], [-6.1527, 53.392], [-6.1531, 53.392], [-6.1533, 53.3919], [-6.1535, 53.3919], [-6.1538, 53.3918], [-6.1541, 53.3918], [-6.1544, 53.3917], [-6.1546, 53.3916], [-6.1549, 53.3915], [-6.1551, 53.3915], [-6.1556, 53.3913], [-6.1559, 53.3912], [-6.1562, 53.391], [-6.1563, 53.3909], [-6.1564, 53.3909], [-6.1565, 53.3908], [-6.1568, 53.3907], [-6.1569, 53.3906], [-6.1572, 53.3904]]]}, "properties": {"ref": "DART", "opened_year": 1984, "is_tunnel": false, "segment_count": 407}}, {"type": "Feature", "geometry": {"type": "MultiLineString", "coordinates": [[[-6.1713, 53.3008], [-6.1709, 53.3007]], [[-6.134, 53.2946], [-6.1331, 53.2942], [-6.1328, 53.294], [-6.1318, 53.2935], [-6.1312, 53.2932], [-6.1308, 53.293]], [[-6.1287, 53.2915], [-6.1283, 53.291], [-6.1282, 53.2909], [-6.1279, 53.2906], [-6.1278, 53.2906]], [[-6.1269, 53.2884], [-6.127, 53.2884], [-6.127, 53.2883], [-6.127, 53.2882]], [[-6.1114, 53.2777], [-6.1111, 53.2776]], [[-6.0964, 53.2718], [-6.0964, 53.2714], [-6.0964, 53.2712], [-6.0965, 53.271], [-6.0966, 53.2708], [-6.0968, 53.2706]], [[-6.1086, 53.2639], [-6.1088, 53.2637]], [[-6.0785, 53.19], [-6.0783, 53.1898]], [[-6.0781, 53.1894], [-6.078, 53.1892], [-6.0778, 53.1889], [-6.0777, 53.1886], [-6.0776, 53.1883], [-6.0775, 53.1879], [-6.0774, 53.1876], [-6.0773, 53.1873], [-6.0772, 53.187]], [[-6.0766, 53.1829], [-6.0764, 53.1826], [-6.0762, 53.1825], [-6.0759, 53.1821], [-6.0757, 53.1818]], [[-6.0754, 53.1801], [-6.0754, 53.1799]], [[-6.0754, 53.1797], [-6.0754, 53.1795]], [[-6.0743, 53.1764], [-6.0742, 53.1762], [-6.0742, 53.1761], [-6.0742, 53.176], [-6.0742, 53.1758], [-6.0743, 53.1756], [-6.0744, 53.1754], [-6.0745, 53.175], [-6.0747, 53.1747]], [[-6.0756, 53.1736], [-6.0766, 53.1725], [-6.0773, 53.1715], [-6.0785, 53.17], [-6.079, 53.1692], [-6.0791, 53.1687], [-6.0792, 53.1673], [-6.0789, 53.1662], [-6.0786, 53.1651]], [[-6.1088, 53.2637], [-6.1087, 53.2639]], [[-6.0968, 53.2706], [-6.0967, 53.2707], [-6.0966, 53.2708], [-6.0965, 53.271], [-6.0964, 53.2712], [-6.0964, 53.2714], [-6.0965, 53.2718]], [[-6.1271, 53.2882], [-6.127, 53.2883], [-6.127, 53.2884]], [[-6.1278, 53.2905], [-6.1279, 53.2906], [-6.1283, 53.291], [-6.1285, 53.2912], [-6.1288, 53.2914]], [[-6.1309, 53.293], [-6.131, 53.2931], [-6.1311, 53.2931], [-6.1312, 53.2932], [-6.1314, 53.2933], [-6.1318, 53.2935], [-6.1329, 53.2941], [-6.134, 53.2946]], [[-6.171, 53.3007], [-6.1713, 53.3007]]]}, "properties": {"ref": "DART", "opened_year": 1984, "is_tunnel": true, "segment_count": 20}}]}